IRIDIUM 144             
1 43249U 18030A   25342.62300320  .00000342  00000+0  11507-3 0  9991
2 43249  86.3969  10.0670 0002294  96.2234 263.9223 14.34217807402822
IRIDIUM 149             
1 43250U 18030B   25342.62934478  .00000227  00000+0  73893-4 0  9999
2 43250  86.3969  10.0337 0002154  93.7618 266.3824 14.34216696402848
IRIDIUM 157             
1 43251U 18030C   25342.57860360  .00000264  00000+0  87177-4 0  9993
2 43251  86.3973  10.1039 0002242  89.1033 271.0420 14.34215380402813
IRIDIUM 140             
1 43252U 18030D   25342.59763293  .00000210  00000+0  67968-4 0  9990
2 43252  86.3972  10.1090 0002197  95.7373 264.4074 14.34217604402877
IRIDIUM 145             
1 43253U 18030E   25342.58494745  .00000132  00000+0  39961-4 0  9998
2 43253  86.3973  10.0870 0002435  99.6262 260.5209 14.34216793402807
IRIDIUM 146             
1 43254U 18030F   25342.63568790  .00000300  00000+0  10010-3 0  9997
2 43254  86.3969  10.0785 0002288  96.2850 263.8606 14.34217367402827
IRIDIUM 148             
1 43255U 18030G   25342.60396811  .00000276  00000+0  91345-4 0  9991
2 43255  86.3972  10.1313 0002115  90.6623 269.4816 14.34216867402857
IRIDIUM 142             
1 43256U 18030H   25342.57226227  .00000602  00000+0  20795-3 0  9994
2 43256  86.3970  10.0413 0002500  99.3467 260.8012 14.34218527402810
